#cP2024  2 20  0  0  0.00000000     577 d+D   IGS20 EXT AIUB
## 2302 172800.00000000   300.00000000 60360 0.0000000000000
+   76   G01G02G03G04G05G07G08G09G10G11G12G13G14G15G16G17G18
+        G19G20G21G22G23G24G25G26G27G28G29G30G31G32R01R02R03
+        R04R05R07R08R09R11R12R13R14R15R16R17R18R19R20R21R22
+        E02E03E04E05E07E08E09E10E11E12E13E14E15E18E19E21E24
+        E25E26E27E30E31E33E34E36  0  0  0  0  0  0  0  0  0
++         6  7  6  6  7  7  6  6  6  7  7  7  6  7  7  7  7
++         7  7  9  7  6  6  6  6  6  5  7  5  7  6  9  7  8
++         8  8  8  7  7  6  6  8  6  6  7  8  8  9  9  8  7
++         6  7  7  7  7  6  7  7  6  6  7  7  7  7  6  6  6
++         6  7  6  6  6  7  6  6  0  0  0  0  0  0  0  0  0
%c M  cc GPS ccc cccc cccc cccc cccc ccccc ccccc ccccc ccccc
%c cc cc ccc ccc cccc cccc cccc cccc ccccc ccccc ccccc ccccc
%f  1.2500000  1.025000000  0.00000000000  0.000000000000000
%f  0.0000000  0.000000000  0.00000000000  0.000000000000000
%i    0    0    0    0      0      0      0      0         0
%i    0    0    0    0      0      0      0      0         0
/* Center for Orbit Determination in Europe (CODE)          
/* Ultra-rapid GRE orbits starting year-day 24051 00 hour   
/* Observed/predicted: 24/24 hours (data used up to 051X)   
/* PCV:IGS20      OL/AL:FES2014b NONE     YN ORB:CoN CLK:BRD
*  2024  2 21 21 10  0.00000000
PG01  13165.022264  -6327.097066  21821.459401    170.518207               P   P
PG02  16412.305095   2240.295164  21309.367056   -481.820302               P   P
PG03  21250.669709  -9148.229853  12794.968294    207.857932               P   P
PG04  24816.711307    585.866818  -9615.137508    297.423281               P   P
PG05 -16840.962440  -2444.914229 -20586.523175   -162.673383               P   P
PG07   7712.088329 -18187.722491 -17031.373765    -67.470385               P   P
PG08  26205.360010   5520.858504    792.669875   -168.153449               P   P
PG09  16078.007316  -9757.261278 -18859.167454     99.980663               P   P
PG10  -6467.169851  20811.537510  15159.362137      1.121985               P   P
PG11 -11848.393752 -21538.944881 -10091.848760   -583.579349               P   P
PG12 -21889.163538   7233.223484  12845.360187   -480.248855               P   P
PG13 -21897.109008 -13964.245135  -6305.686694    627.654531               P   P
PG14  10209.995036 -21419.256869  11760.841059    331.835095               P   P
PG15 -26508.501263  -2887.833143     98.594239    130.121898               P   P
PG16  12714.803209   9170.192863 -21817.905283   -357.528340               P   P
PG17   2884.942487 -15010.620180  22137.329022    716.235967               P   P
PG18  -7004.209556  19175.853305 -16873.489542   -560.622206               P   P
PG19  -7906.050529 -16886.528368  18867.383636    443.916298               P   P
PG20  -8103.675528 -14301.061885 -20830.938373    386.623805               P   P
PG21  17343.759079   8596.563899  19075.431327    134.087478               P   P
PG22   3917.782650 -19650.636029  18005.296640     27.441180               P   P
PG23 -15943.126357  20758.057759   3894.549285    161.172363               P   P
PG24 -17124.313247  -4755.086307  19445.251687   -435.463764               P   P
PG25 -20052.683471  16627.834604   4029.123125    489.282243               P   P
PG26   4204.608719  17491.344116 -19575.672932    187.722030               P   P
PG27  20830.457992  13139.798676 -10768.357605     -6.031759               P   P
PG28   4744.049057  25776.410181   4296.477879   -138.952953               P   P
PG29 -18141.088543   6824.126118 -18255.753569   -606.495172               P   P
PG30    269.758498 -24792.764703  -9014.619481   -429.520896               P   P
PG31  10027.220279  23727.409004  -5739.218842   -227.839388               P   P
PG32   1861.426617  15904.849830  21422.225574   -612.821496               P   P
PR01   6762.022793   9814.798752  22556.919207     77.781163               P   P
PR02  21862.222758   3471.418757  12784.361990    -22.474841               P   P
PR03  24637.309208  -5131.783088  -4300.249898     95.008151               P   P
PR04  13937.023472 -10329.583426 -18673.114749    224.440679               P   P
PR05  -4224.300947 -10221.485499 -22967.459852    127.277258               P   P
PR07 -24299.248032   5551.224342   5343.484142     76.310917               P   P
PR08 -13529.047959  10615.494479  18890.325661    -74.427762               P   P
PR09  -9662.329420  -6332.998743  22750.533680    171.305977               P   P
PR11 -11328.117718  22447.729699   4348.987244     33.577995               P   P
PR12  -1222.732578  21019.828544 -14370.039696     36.979444               P   P
PR13   8130.092291   8851.055639 -22518.961708    -44.575350               P   P
PR14  14041.461157 -11381.029713 -17986.284659     26.077032               P   P
PR15  10942.211117 -22866.878684  -2807.882060     81.979897               P   P
PR16   1351.734230 -21123.640466  14212.845958     23.449519               P   P
PR17  13099.040284    834.648262  21875.007398     63.162920               P   P
PR18   2182.037332 -13474.407553  21552.111829    128.561990               P   P
PR19  -8233.327788 -21153.578628  11635.407709   -266.682131               P   P
PR20 -16596.548443 -16964.736878  -9275.987014   -108.646420               P   P
PR21 -12933.338163   -808.943750 -21972.534140    -78.830557               P   P
PR22  -1995.077894  14476.219001 -20884.614162    109.218952               P   P
PE02 -10319.326545  23675.806768 -14455.976480    105.329600               P   P
PE03   -950.351575  17207.153223  24064.606208    -95.374288               P   P
PE04 -19929.588789 -16276.304751 -14621.935772   -332.742412               P   P
PE05 -20931.184538   8084.806421  19311.379022   4722.250299               P   P
PE07  28816.638513   6120.743711  -2834.320509   -105.012396               P   P
PE08  19346.639303  16410.998172  15244.414047   -227.553994               P   P
PE09 -28821.334466  -6197.138540   2742.981394   -344.453731               P   P
PE10 -15973.472985 -18017.142132 -17215.189936   -603.728676               P   P
PE11 -17138.612659  -7041.458757 -23082.837810   3232.109039               P   P
PE12 -12548.771977 -25087.378506  -9409.943513   -916.397767               P   P
PE13  17103.986044   7836.805763  22863.566891    -20.265194               P   P
PE14 -31018.783860  -2212.802700  -8922.315794 999999.999999               P   P
PE15  12303.942457  25412.891962   8920.556605    -87.122959               P   P
PE18  22603.367705   2181.870422   6279.364333 999999.999999               P   P
PE19   3508.902450 -16471.686532 -24332.649669   -570.205046               P   P
PE21  22597.948708 -18891.227798  -2979.441121   -580.206929               P   P
PE24 -22081.889265   2358.353396  19535.333867   -611.172445               P   P
PE25 -22724.543293  18662.226692   3345.495827      1.187740               P   P
PE26  11678.501915 -14698.375276  22892.501304    375.544479               P   P
PE27  22223.736265  -2827.049978 -19359.483315   -280.574769               P   P
PE30   8560.830804  14945.235405 -24089.387480    -21.035822               P   P
PE31  -8743.368744 -14729.270788  24139.139337    -16.536692               P   P
PE33     25.312226 -27653.995682  10560.385047      7.946585               P   P
PE34    408.123855  27839.770018 -10048.003005    -95.936617               P   P
PE36 -11824.138658  14050.678593 -23212.195701   -189.189770               P   P
EOF
